[{"OBJECT_NAME":"STARLINK-30867","OBJECT_ID":"2023-171B","EPOCH":"2026-03-09T22:00:01.999584","MEAN_MOTION":15.2673577,"ECCENTRICITY":0.00016725,"INCLINATION":42.9996,"RA_OF_ASC_NODE":283.5783,"ARG_OF_PERICENTER":280.1219,"MEAN_ANOMALY":80.7554,"EPHEMERIS_TYPE":0,"CLASSIFICATION_TYPE":"U","NORAD_CAT_ID":58231,"ELEMENT_SET_NO":999,"REV_AT_EPOCH":572,"BSTAR":0.0010048907,"MEAN_MOTION_DOT":0.0002679,"MEAN_MOTION_DDOT":0},{"OBJECT_NAME":"JINJUSAT-1B","OBJECT_ID":"2025-052A","EPOCH":"2026-03-09T15:55:38.242848","MEAN_MOTION":15.30194857,"ECCENTRICITY":0.00055504,"INCLINATION":97.4113,"RA_OF_ASC_NODE":325.4613,"ARG_OF_PERICENTER":82.193,"MEAN_ANOMALY":277.9941,"EPHEMERIS_TYPE":0,"CLASSIFICATION_TYPE":"U","NORAD_CAT_ID":63210,"ELEMENT_SET_NO":999,"REV_AT_EPOCH":5486,"BSTAR":0.00068430401,"MEAN_MOTION_DOT":0.00019955,"MEAN_MOTION_DDOT":0}]
